OOV-CUBE (TUBSAT-30)    
1 60240U 24128F   26032.94891905  .00002603  00000+0  20705-3 0  9994
2 60240  61.9970 336.8877 0056848 104.7946 255.9453 15.01983595 85798
COLIBRI-S (RS67S)       
1 61746U 24199M   26032.94150420  .00019424  00000+0  46048-3 0  9991
2 61746  97.3214 265.9577 0011409  56.4727 303.7608 15.41713322116531
HORS 3 (RS81S)          
1 61753U 24199U   26032.94332859  .00027079  00000+0  55689-3 0  9993
2 61753  97.3183 266.8348 0009805  61.5949 298.6288 15.45891335116609
HORS 4 (RS82S)          
1 61754U 24199V   26032.94110216  .00035193  00000+0  66661-3 0  9993
2 61754  97.3163 267.4024 0009648  59.7929 300.4276 15.48231517116644
HORIZON (RS59S)         
1 61757U 24199Y   26032.95626507  .00083042  00000+0  94849-3 0  9997
2 61757  97.3153 270.3879 0008352  45.6759 314.5183 15.61881624116832
ARCTICSAT 1 (RS74S)     
1 61762U 24199AD  26032.95403106  .00068281  00000+0  86631-3 0  9999
2 61762  97.3168 270.0896 0008402  43.2107 316.9808 15.59177641116819
SIT-2086                
1 61764U 24199AF  26032.94377700  .00020338  00000+0  42225-3 0  9992
2 61764  97.3180 267.5935 0008972  47.4782 312.7224 15.45677809113490
MORDOVIA-IOT (RS50S)    
1 61765U 24199AG  26030.00009282  .01088222  64376-3  17131-2 0  9999
2 61765  97.2909 271.5843 0005153  76.8106 283.3749 16.04044133113518
RUZAEVKA 390 (RS44S)    
1 61766U 24199AH  26032.92593748  .00212285  00000+0  12689-2 0  9998
2 61766  97.3064 272.7218 0006237  49.7753 310.4058 15.77243874113845
HYPERVIEW 1G (RS66S)    
1 61772U 24199AP  26032.92568130  .00054060  00000+0  85182-3 0  9996
2 61772  97.3155 268.1786 0011353  57.5755 302.6595 15.53322616113548
ALTAIR (RS65S)          
1 61779U 24199AW  26032.96715112  .00009799  00000+0  29863-3 0  9994
2 61779  97.3229 263.3046 0015522  73.3336 286.9610 15.34048954116360
ASRTU-1 (AO-123)        
1 61781U 24199AY  26032.92669633  .00009931  00000+0  31012-3 0  9996
2 61781  97.3208 262.8497 0016004  74.5053 285.7956 15.33261543113186
TUSUR GO (RS78S)        
1 61782U 24199AZ  26032.97237124  .00089889  00000+0  10325-2 0  9991
2 61782  97.3108 269.4297 0009832  55.8178 304.4010 15.61693820113636
SAMSAT-IONOSPHERE (RS7*)
1 61784U 24199BB  26032.92503907  .00033899  00000+0  67695-3 0  9996
2 61784  97.3177 266.5621 0012808  62.1934 298.0613 15.46668362116581
RTU MIREA 1 (RS51S)     
1 61785U 24199BC  26032.96274719  .00035655  00000+0  67477-3 0  9997
2 61785  97.3173 266.9542 0012403  59.8548 300.3930 15.48219518113469
HADES-R                 
1 62690U 25009CK  26032.74362905  .04459695  23838-5  27609-2 0  9995
2 62690  97.3551 123.5004 0009643 302.9928  57.0432 16.17887129 58807
