[{"OBJECT_NAME":"OOV-CUBE (TUBSAT-30)","OBJECT_ID":"2024-128F","EPOCH":"2026-02-01T22:46:26.605920","MEAN_MOTION":15.01983595,"ECCENTRICITY":0.00568481,"INCLINATION":61.997,"RA_OF_ASC_NODE":336.8877,"ARG_OF_PERICENTER":104.7946,"MEAN_ANOMALY":255.9453,"EPHEMERIS_TYPE":0,"CLASSIFICATION_TYPE":"U","NORAD_CAT_ID":60240,"ELEMENT_SET_NO":999,"REV_AT_EPOCH":8579,"BSTAR":0.00020704644,"MEAN_MOTION_DOT":2.603e-5,"MEAN_MOTION_DDOT":0},{"OBJECT_NAME":"COLIBRI-S (RS67S)","OBJECT_ID":"2024-199M","EPOCH":"2026-02-01T22:35:45.962880","MEAN_MOTION":15.41713322,"ECCENTRICITY":0.00114099,"INCLINATION":97.3214,"RA_OF_ASC_NODE":265.9577,"ARG_OF_PERICENTER":56.4727,"MEAN_ANOMALY":303.7608,"EPHEMERIS_TYPE":0,"CLASSIFICATION_TYPE":"U","NORAD_CAT_ID":61746,"ELEMENT_SET_NO":999,"REV_AT_EPOCH":11653,"BSTAR":0.00046047705,"MEAN_MOTION_DOT":0.00019424,"MEAN_MOTION_DDOT":0},{"OBJECT_NAME":"HORS 3 (RS81S)","OBJECT_ID":"2024-199U","EPOCH":"2026-02-01T22:38:23.590176","MEAN_MOTION":15.45891335,"ECCENTRICITY":0.00098059,"INCLINATION":97.3183,"RA_OF_ASC_NODE":266.8348,"ARG_OF_PERICENTER":61.5949,"MEAN_ANOMALY":298.6288,"EPHEMERIS_TYPE":0,"CLASSIFICATION_TYPE":"U","NORAD_CAT_ID":61753,"ELEMENT_SET_NO":999,"REV_AT_EPOCH":11660,"BSTAR":0.00055689035,"MEAN_MOTION_DOT":0.00027079,"MEAN_MOTION_DDOT":0},{"OBJECT_NAME":"HORS 4 (RS82S)","OBJECT_ID":"2024-199V","EPOCH":"2026-02-01T22:35:11.226624","MEAN_MOTION":15.48231517,"ECCENTRICITY":0.00096489,"INCLINATION":97.3163,"RA_OF_ASC_NODE":267.4024,"ARG_OF_PERICENTER":59.7929,"MEAN_ANOMALY":300.4276,"EPHEMERIS_TYPE":0,"CLASSIFICATION_TYPE":"U","NORAD_CAT_ID":61754,"ELEMENT_SET_NO":999,"REV_AT_EPOCH":11664,"BSTAR":0.00066660601,"MEAN_MOTION_DOT":0.00035193,"MEAN_MOTION_DDOT":0},{"OBJECT_NAME":"HORIZON (RS59S)","OBJECT_ID":"2024-199Y","EPOCH":"2026-02-01T22:57:01.302048","MEAN_MOTION":15.61881624,"ECCENTRICITY":0.00083526,"INCLINATION":97.3153,"RA_OF_ASC_NODE":270.3879,"ARG_OF_PERICENTER":45.6759,"MEAN_ANOMALY":314.5183,"EPHEMERIS_TYPE":0,"CLASSIFICATION_TYPE":"U","NORAD_CAT_ID":61757,"ELEMENT_SET_NO":999,"REV_AT_EPOCH":11683,"BSTAR":0.00094848998,"MEAN_MOTION_DOT":0.00083042,"MEAN_MOTION_DDOT":0},{"OBJECT_NAME":"ARCTICSAT 1 (RS74S)","OBJECT_ID":"2024-199AD","EPOCH":"2026-02-01T22:53:48.283584","MEAN_MOTION":15.59177641,"ECCENTRICITY":0.00084021,"INCLINATION":97.3168,"RA_OF_ASC_NODE":270.0896,"ARG_OF_PERICENTER":43.2107,"MEAN_ANOMALY":316.9808,"EPHEMERIS_TYPE":0,"CLASSIFICATION_TYPE":"U","NORAD_CAT_ID":61762,"ELEMENT_SET_NO":999,"REV_AT_EPOCH":11681,"BSTAR":0.00086630502,"MEAN_MOTION_DOT":0.00068281,"MEAN_MOTION_DDOT":0},{"OBJECT_NAME":"SIT-2086","OBJECT_ID":"2024-199AF","EPOCH":"2026-02-01T22:39:02.332800","MEAN_MOTION":15.45677809,"ECCENTRICITY":0.00089728,"INCLINATION":97.318,"RA_OF_ASC_NODE":267.5935,"ARG_OF_PERICENTER":47.4782,"MEAN_ANOMALY":312.7224,"EPHEMERIS_TYPE":0,"CLASSIFICATION_TYPE":"U","NORAD_CAT_ID":61764,"ELEMENT_SET_NO":999,"REV_AT_EPOCH":11349,"BSTAR":0.0004222521,"MEAN_MOTION_DOT":0.00020338,"MEAN_MOTION_DDOT":0},{"OBJECT_NAME":"MORDOVIA-IOT (RS50S)","OBJECT_ID":"2024-199AG","EPOCH":"2026-01-30T00:00:08.019648","MEAN_MOTION":16.04044133,"ECCENTRICITY":0.00051533,"INCLINATION":97.2909,"RA_OF_ASC_NODE":271.5843,"ARG_OF_PERICENTER":76.8106,"MEAN_ANOMALY":283.3749,"EPHEMERIS_TYPE":0,"CLASSIFICATION_TYPE":"U","NORAD_CAT_ID":61765,"ELEMENT_SET_NO":999,"REV_AT_EPOCH":11351,"BSTAR":0.0017131085,"MEAN_MOTION_DOT":0.01088222,"MEAN_MOTION_DDOT":0.00064376329},{"OBJECT_NAME":"RUZAEVKA 390 (RS44S)","OBJECT_ID":"2024-199AH","EPOCH":"2026-02-01T22:13:20.998272","MEAN_MOTION":15.77243874,"ECCENTRICITY":0.0006237,"INCLINATION":97.3064,"RA_OF_ASC_NODE":272.7218,"ARG_OF_PERICENTER":49.7753,"MEAN_ANOMALY":310.4058,"EPHEMERIS_TYPE":0,"CLASSIFICATION_TYPE":"U","NORAD_CAT_ID":61766,"ELEMENT_SET_NO":999,"REV_AT_EPOCH":11384,"BSTAR":0.0012689376,"MEAN_MOTION_DOT":0.00212285,"MEAN_MOTION_DDOT":0},{"OBJECT_NAME":"HYPERVIEW 1G (RS66S)","OBJECT_ID":"2024-199AP","EPOCH":"2026-02-01T22:12:58.864320","MEAN_MOTION":15.53322616,"ECCENTRICITY":0.00113534,"INCLINATION":97.3155,"RA_OF_ASC_NODE":268.1786,"ARG_OF_PERICENTER":57.5755,"MEAN_ANOMALY":302.6595,"EPHEMERIS_TYPE":0,"CLASSIFICATION_TYPE":"U","NORAD_CAT_ID":61772,"ELEMENT_SET_NO":999,"REV_AT_EPOCH":11354,"BSTAR":0.00085181769,"MEAN_MOTION_DOT":0.0005406,"MEAN_MOTION_DDOT":0},{"OBJECT_NAME":"ALTAIR (RS65S)","OBJECT_ID":"2024-199AW","EPOCH":"2026-02-01T23:12:41.856768","MEAN_MOTION":15.34048954,"ECCENTRICITY":0.00155228,"INCLINATION":97.3229,"RA_OF_ASC_NODE":263.3046,"ARG_OF_PERICENTER":73.3336,"MEAN_ANOMALY":286.961,"EPHEMERIS_TYPE":0,"CLASSIFICATION_TYPE":"U","NORAD_CAT_ID":61779,"ELEMENT_SET_NO":999,"REV_AT_EPOCH":11636,"BSTAR":0.00029862689,"MEAN_MOTION_DOT":9.799e-5,"MEAN_MOTION_DDOT":0},{"OBJECT_NAME":"ASRTU-1 (AO-123)","OBJECT_ID":"2024-199AY","EPOCH":"2026-02-01T22:14:26.562912","MEAN_MOTION":15.33261543,"ECCENTRICITY":0.00160046,"INCLINATION":97.3208,"RA_OF_ASC_NODE":262.8497,"ARG_OF_PERICENTER":74.5053,"MEAN_ANOMALY":285.7956,"EPHEMERIS_TYPE":0,"CLASSIFICATION_TYPE":"U","NORAD_CAT_ID":61781,"ELEMENT_SET_NO":999,"REV_AT_EPOCH":11318,"BSTAR":0.00031011736,"MEAN_MOTION_DOT":9.931e-5,"MEAN_MOTION_DDOT":0},{"OBJECT_NAME":"TUSUR GO (RS78S)","OBJECT_ID":"2024-199AZ","EPOCH":"2026-02-01T23:20:12.875136","MEAN_MOTION":15.6169382,"ECCENTRICITY":0.00098328,"INCLINATION":97.3108,"RA_OF_ASC_NODE":269.4297,"ARG_OF_PERICENTER":55.8178,"MEAN_ANOMALY":304.401,"EPHEMERIS_TYPE":0,"CLASSIFICATION_TYPE":"U","NORAD_CAT_ID":61782,"ELEMENT_SET_NO":999,"REV_AT_EPOCH":11363,"BSTAR":0.0010325239,"MEAN_MOTION_DOT":0.00089889,"MEAN_MOTION_DDOT":0},{"OBJECT_NAME":"SAMSAT-IONOSPHERE (RS75S)","OBJECT_ID":"2024-199BB","EPOCH":"2026-02-01T22:12:03.375648","MEAN_MOTION":15.46668362,"ECCENTRICITY":0.00128088,"INCLINATION":97.3177,"RA_OF_ASC_NODE":266.5621,"ARG_OF_PERICENTER":62.1934,"MEAN_ANOMALY":298.0613,"EPHEMERIS_TYPE":0,"CLASSIFICATION_TYPE":"U","NORAD_CAT_ID":61784,"ELEMENT_SET_NO":999,"REV_AT_EPOCH":11658,"BSTAR":0.00067695308,"MEAN_MOTION_DOT":0.00033899,"MEAN_MOTION_DDOT":0},{"OBJECT_NAME":"RTU MIREA 1 (RS51S)","OBJECT_ID":"2024-199BC","EPOCH":"2026-02-01T23:06:21.357216","MEAN_MOTION":15.48219518,"ECCENTRICITY":0.00124033,"INCLINATION":97.3173,"RA_OF_ASC_NODE":266.9542,"ARG_OF_PERICENTER":59.8548,"MEAN_ANOMALY":300.393,"EPHEMERIS_TYPE":0,"CLASSIFICATION_TYPE":"U","NORAD_CAT_ID":61785,"ELEMENT_SET_NO":999,"REV_AT_EPOCH":11346,"BSTAR":0.00067477417,"MEAN_MOTION_DOT":0.00035655,"MEAN_MOTION_DDOT":0},{"OBJECT_NAME":"HADES-R","OBJECT_ID":"2025-009CK","EPOCH":"2026-02-01T17:50:49.549920","MEAN_MOTION":16.17887129,"ECCENTRICITY":0.00096431,"INCLINATION":97.3551,"RA_OF_ASC_NODE":123.5004,"ARG_OF_PERICENTER":302.9928,"MEAN_ANOMALY":57.0432,"EPHEMERIS_TYPE":0,"CLASSIFICATION_TYPE":"U","NORAD_CAT_ID":62690,"ELEMENT_SET_NO":999,"REV_AT_EPOCH":5880,"BSTAR":0.0027608527,"MEAN_MOTION_DOT":0.04459695,"MEAN_MOTION_DDOT":2.383829e-6}]
